{
  "type": "FeatureCollection",
  "features": [
    {
      "type": "Feature",
      "properties": {
        "norad_id": 32376,
        "name": "COSMO-SKYMED 2",
        "group": "resource",
        "lat": 28.21742963955912,
        "lon": 154.6544288560818,
        "alt_km": 620.7886750056341,
        "timestamp": "2025-12-03T10:52:57.106373+00:00",
        "meta_object_name": "COSMO-SKYMED 2",
        "meta_object_id": "2007-059A",
        "meta_epoch": "2025-12-03T04:16:23.734272",
        "meta_mean_motion": 14.82145991,
        "meta_eccentricity": 0.000153,
        "meta_inclination": 97.8806,
        "meta_ra_of_asc_node": 158.6456,
        "meta_arg_of_pericenter": 88.3775,
        "meta_mean_anomaly": 271.7614,
        "meta_ephemeris_type": 0,
        "meta_classification_type": "U",
        "meta_norad_cat_id": 32376,
        "meta_element_set_no": 999,
        "meta_rev_at_epoch": 97296,
        "meta_bstar": 0.00011406,
        "meta_mean_motion_dot": 8.56e-06,
        "meta_mean_motion_ddot": 0,
        "tle_line1": "1 32376U 07059A   25337.17805248  .00000856  00000+0  11406-3 0  9990",
        "tle_line2": "2 32376  97.8806 158.6456 0001530  88.3775 271.7614 14.82145991972968"
      },
      "geometry": {
        "type": "Point",
        "coordinates": [
          154.6544288560818,
          28.21742963955912
        ]
      }
    },
    {
      "type": "Feature",
      "properties": {
        "norad_id": 32382,
        "name": "RADARSAT-2",
        "group": "resource",
        "lat": -77.76724275135135,
        "lon": 26.31444864655611,
        "alt_km": 799.8691570434967,
        "timestamp": "2025-12-03T10:52:57.106384+00:00",
        "meta_object_name": "RADARSAT-2",
        "meta_object_id": "2007-061A",
        "meta_epoch": "2025-12-03T04:32:41.505792",
        "meta_mean_motion": 14.29983473,
        "meta_eccentricity": 0.0001079,
        "meta_inclination": 98.58,
        "meta_ra_of_asc_node": 341.9183,
        "meta_arg_of_pericenter": 90.9324,
        "meta_mean_anomaly": 269.1982,
        "meta_ephemeris_type": 0,
        "meta_classification_type": "U",
        "meta_norad_cat_id": 32382,
        "meta_element_set_no": 999,
        "meta_rev_at_epoch": 93794,
        "meta_bstar": 6.6849e-05,
        "meta_mean_motion_dot": 1.29e-06,
        "meta_mean_motion_ddot": 0,
        "tle_line1": "1 32382U 07061A   25337.18936928  .00000129  00000+0  66849-4 0  9996",
        "tle_line2": "2 32382  98.5800 341.9183 0001079  90.9324 269.1982 14.29983473937942"
      },
      "geometry": {
        "type": "Point",
        "coordinates": [
          26.31444864655611,
          -77.76724275135135
        ]
      }
    },
    {
      "type": "Feature",
      "properties": {
        "norad_id": 32783,
        "name": "CARTOSAT-2A",
        "group": "resource",
        "lat": -80.06174806856473,
        "lon": 78.98791255108043,
        "alt_km": 644.1532741413766,
        "timestamp": "2025-12-03T10:52:57.106395+00:00",
        "meta_object_name": "CARTOSAT-2A",
        "meta_object_id": "2008-021A",
        "meta_epoch": "2025-12-03T04:45:56.320992",
        "meta_mean_motion": 14.78907008,
        "meta_eccentricity": 0.0012503,
        "meta_inclination": 97.7944,
        "meta_ra_of_asc_node": 27.3197,
        "meta_arg_of_pericenter": 34.4177,
        "meta_mean_anomaly": 325.7842,
        "meta_ephemeris_type": 0,
        "meta_classification_type": "U",
        "meta_norad_cat_id": 32783,
        "meta_element_set_no": 999,
        "meta_rev_at_epoch": 94983,
        "meta_bstar": 0.00017595,
        "meta_mean_motion_dot": 1.248e-05,
        "meta_mean_motion_ddot": 0,
        "tle_line1": "1 32783U 08021A   25337.19856853  .00001248  00000+0  17595-3 0  9993",
        "tle_line2": "2 32783  97.7944  27.3197 0012503  34.4177 325.7842 14.78907008949839"
      },
      "geometry": {
        "type": "Point",
        "coordinates": [
          78.98791255108043,
          -80.06174806856473
        ]
      }
    },
    {
      "type": "Feature",
      "properties": {
        "norad_id": 33320,
        "name": "HUANJING 1A (HJ-1A)",
        "group": "resource",
        "lat": -6.944783135744289,
        "lon": -32.92112096659531,
        "alt_km": 617.7010780039254,
        "timestamp": "2025-12-03T10:52:57.106406+00:00",
        "meta_object_name": "HUANJING 1A (HJ-1A)",
        "meta_object_id": "2008-041A",
        "meta_epoch": "2025-12-03T04:26:17.359296",
        "meta_mean_motion": 14.83344196,
        "meta_eccentricity": 0.0020656,
        "meta_inclination": 97.6535,
        "meta_ra_of_asc_node": 325.8831,
        "meta_arg_of_pericenter": 63.9745,
        "meta_mean_anomaly": 296.3594,
        "meta_ephemeris_type": 0,
        "meta_classification_type": "U",
        "meta_norad_cat_id": 33320,
        "meta_element_set_no": 999,
        "meta_rev_at_epoch": 92934,
        "meta_bstar": 0.00024935,
        "meta_mean_motion_dot": 2e-05,
        "meta_mean_motion_ddot": 0,
        "tle_line1": "1 33320U 08041A   25337.18492314  .00002000  00000+0  24935-3 0  9993",
        "tle_line2": "2 33320  97.6535 325.8831 0020656  63.9745 296.3594 14.83344196929349"
      },
      "geometry": {
        "type": "Point",
        "coordinates": [
          -32.92112096659531,
          -6.944783135744289
        ]
      }
    },
    {
      "type": "Feature",
      "properties": {
        "norad_id": 33321,
        "name": "HUANJING 1B (HJ-1B)",
        "group": "resource",
        "lat": -53.1744840464512,
        "lon": 139.53535047969032,
        "alt_km": 644.2082418528162,
        "timestamp": "2025-12-03T10:52:57.106416+00:00",
        "meta_object_name": "HUANJING 1B (HJ-1B)",
        "meta_object_id": "2008-041B",
        "meta_epoch": "2025-12-03T04:58:33.624768",
        "meta_mean_motion": 14.82780387,
        "meta_eccentricity": 0.0038154,
        "meta_inclination": 97.6396,
        "meta_ra_of_asc_node": 329.6264,
        "meta_arg_of_pericenter": 105.8928,
        "meta_mean_anomaly": 254.6497,
        "meta_ephemeris_type": 0,
        "meta_classification_type": "U",
        "meta_norad_cat_id": 33321,
        "meta_element_set_no": 999,
        "meta_rev_at_epoch": 92936,
        "meta_bstar": 0.0001995,
        "meta_mean_motion_dot": 1.582e-05,
        "meta_mean_motion_ddot": 0,
        "tle_line1": "1 33321U 08041B   25337.20733362  .00001582  00000+0  19950-3 0  9993",
        "tle_line2": "2 33321  97.6396 329.6264 0038154 105.8928 254.6497 14.82780387929364"
      },
      "geometry": {
        "type": "Point",
        "coordinates": [
          139.53535047969032,
          -53.1744840464512
        ]
      }
    },
    {
      "type": "Feature",
      "properties": {
        "norad_id": 33331,
        "name": "GEOEYE 1",
        "group": "resource",
        "lat": 76.98692467644575,
        "lon": -92.96086887250428,
        "alt_km": 672.177534846006,
        "timestamp": "2025-12-03T10:52:57.106428+00:00",
        "meta_object_name": "GEOEYE 1",
        "meta_object_id": "2008-042A",
        "meta_epoch": "2025-12-03T03:52:08.832576",
        "meta_mean_motion": 14.64790549,
        "meta_eccentricity": 0.0002996,
        "meta_inclination": 98.1264,
        "meta_ra_of_asc_node": 48.5611,
        "meta_arg_of_pericenter": 318.2534,
        "meta_mean_anomaly": 41.844,
        "meta_ephemeris_type": 0,
        "meta_classification_type": "U",
        "meta_norad_cat_id": 33331,
        "meta_element_set_no": 999,
        "meta_rev_at_epoch": 92145,
        "meta_bstar": 0.00017141,
        "meta_mean_motion_dot": 8.67e-06,
        "meta_mean_motion_ddot": 0,
        "tle_line1": "1 33331U 08042A   25337.16121334  .00000867  00000+0  17141-3 0  9995",
        "tle_line2": "2 33331  98.1264  48.5611 0002996 318.2534  41.8440 14.64790549921453"
      },
      "geometry": {
        "type": "Point",
        "coordinates": [
          -92.96086887250428,
          76.98692467644575
        ]
      }
    },
    {
      "type": "Feature",
      "properties": {
        "norad_id": 33396,
        "name": "THEOS",
        "group": "resource",
        "lat": 8.936737500853035,
        "lon": 34.45474234647878,
        "alt_km": 826.7286367814804,
        "timestamp": "2025-12-03T10:52:57.106453+00:00",
        "meta_object_name": "THEOS",
        "meta_object_id": "2008-049A",
        "meta_epoch": "2025-12-03T04:04:34.107744",
        "meta_mean_motion": 14.20093032,
        "meta_eccentricity": 0.0001086,
        "meta_inclination": 98.5881,
        "meta_ra_of_asc_node": 35.5412,
        "meta_arg_of_pericenter": 100.5718,
        "meta_mean_anomaly": 259.5582,
        "meta_ephemeris_type": 0,
        "meta_classification_type": "U",
        "meta_norad_cat_id": 33396,
        "meta_element_set_no": 999,
        "meta_rev_at_epoch": 89014,
        "meta_bstar": 6.7976e-05,
        "meta_mean_motion_dot": 1.02e-06,
        "meta_mean_motion_ddot": 0,
        "tle_line1": "1 33396U 08049A   25337.16983921  .00000102  00000+0  67976-4 0  9995",
        "tle_line2": "2 33396  98.5881  35.5412 0001086 100.5718 259.5582 14.20093032890144"
      },
      "geometry": {
        "type": "Point",
        "coordinates": [
          34.45474234647878,
          8.936737500853035
        ]
      }
    }
  ]
}